{"type": "FeatureCollection", "features": [{"type": "Feature", "properties": {"norad_id": 50032, "name": "COSMOS 1408 DEB", "group": "cosmos-1408-debris", "lat": -27.77734941524544, "lon": 59.03839644732205, "alt_km": 438.2757626550283, "timestamp": "2025-12-08T08:59:01.036220+00:00", "meta": {"OBJECT_NAME": "COSMOS 1408 DEB", "OBJECT_ID": "1982-092RU", "EPOCH": "2025-12-07T17:34:01.076160", "MEAN_MOTION": 15.45619008, "ECCENTRICITY": 0.00148675, "INCLINATION": 82.5645, "RA_OF_ASC_NODE": 63.6412, "ARG_OF_PERICENTER": 228.0559, "MEAN_ANOMALY": 131.9424, "EPHEMERIS_TYPE": 0, "CLASSIFICATION_TYPE": "U", "NORAD_CAT_ID": 50032, "ELEMENT_SET_NO": 999, "REV_AT_EPOCH": 22526, "BSTAR": 0.00016813731, "MEAN_MOTION_DOT": 8.166e-05, "MEAN_MOTION_DDOT": 0}, "tle": {"line1": "1 50032U 82092RU  25341.73195690  .00008166  00000+0  16814-3 0  9999", "line2": "2 50032  82.5645  63.6412 0014867 228.0559 131.9424 15.45619008225261"}}, "geometry": {"type": "Point", "coordinates": [59.03839644732205, -27.77734941524544]}}, {"type": "Feature", "properties": {"norad_id": 50058, "name": "COSMOS 1408 DEB", "group": "cosmos-1408-debris", "lat": -66.54964309673122, "lon": -88.68843228042911, "alt_km": 391.7735084830674, "timestamp": "2025-12-08T08:59:01.036242+00:00", "meta": {"OBJECT_NAME": "COSMOS 1408 DEB", "OBJECT_ID": "1982-092SW", "EPOCH": "2025-12-07T18:06:22.966272", "MEAN_MOTION": 15.63666132, "ECCENTRICITY": 0.00163167, "INCLINATION": 82.6132, "RA_OF_ASC_NODE": 74.5574, "ARG_OF_PERICENTER": 116.4206, "MEAN_ANOMALY": 243.873, "EPHEMERIS_TYPE": 0, "CLASSIFICATION_TYPE": "U", "NORAD_CAT_ID": 50058, "ELEMENT_SET_NO": 999, "REV_AT_EPOCH": 22726, "BSTAR": 0.0004723699, "MEAN_MOTION_DOT": 0.00044422, "MEAN_MOTION_DDOT": 0}, "tle": {"line1": "1 50058U 82092SW  25341.75443248  .00044422  00000+0  47237-3 0  9992", "line2": "2 50058  82.6132  74.5574 0016316 116.4206 243.8730 15.63666132227266"}}, "geometry": {"type": "Point", "coordinates": [-88.68843228042911, -66.54964309673122]}}, {"type": "Feature", "properties": {"norad_id": 50404, "name": "COSMOS 1408 DEB", "group": "cosmos-1408-debris", "lat": 68.78062928210662, "lon": -119.83480135917485, "alt_km": 616.7046569590821, "timestamp": "2025-12-08T08:59:01.036255+00:00", "meta": {"OBJECT_NAME": "COSMOS 1408 DEB", "OBJECT_ID": "1982-092ADS", "EPOCH": "2025-12-07T16:47:22.854912", "MEAN_MOTION": 15.12762303, "ECCENTRICITY": 0.01739986, "INCLINATION": 82.2029, "RA_OF_ASC_NODE": 220.189, "ARG_OF_PERICENTER": 216.3079, "MEAN_ANOMALY": 142.6247, "EPHEMERIS_TYPE": 0, "CLASSIFICATION_TYPE": "U", "NORAD_CAT_ID": 50404, "ELEMENT_SET_NO": 999, "REV_AT_EPOCH": 21117, "BSTAR": 0.0041519502, "MEAN_MOTION_DOT": 0.00106991, "MEAN_MOTION_DDOT": 0}, "tle": {"line1": "1 50404U 82092ADS 25341.69957008  .00106991  00000+0  41520-2 0  9992", "line2": "2 50404  82.2029 220.1890 0173998 216.3079 142.6247 15.12762303211173"}}, "geometry": {"type": "Point", "coordinates": [-119.83480135917485, 68.78062928210662]}}, {"type": "Feature", "properties": {"norad_id": 50621, "name": "COSMOS 1408 DEB", "group": "cosmos-1408-debris", "lat": 19.694311238480935, "lon": 81.40195914614777, "alt_km": 415.11946774677017, "timestamp": "2025-12-08T08:59:01.036267+00:00", "meta": {"OBJECT_NAME": "COSMOS 1408 DEB", "OBJECT_ID": "1982-092ALR", "EPOCH": "2025-12-07T17:28:00.064992", "MEAN_MOTION": 15.56277985, "ECCENTRICITY": 0.0028731, "INCLINATION": 82.5719, "RA_OF_ASC_NODE": 79.3978, "ARG_OF_PERICENTER": 170.8741, "MEAN_ANOMALY": 189.3043, "EPHEMERIS_TYPE": 0, "CLASSIFICATION_TYPE": "U", "NORAD_CAT_ID": 50621, "ELEMENT_SET_NO": 999, "REV_AT_EPOCH": 22172, "BSTAR": 0.00058025249, "MEAN_MOTION_DOT": 0.00041704, "MEAN_MOTION_DDOT": 0}, "tle": {"line1": "1 50621U 82092ALR 25341.72777853  .00041704  00000+0  58025-3 0  9994", "line2": "2 50621  82.5719  79.3978 0028731 170.8741 189.3043 15.56277985221727"}}, "geometry": {"type": "Point", "coordinates": [81.40195914614777, 19.694311238480935]}}]}